1 37673U 11024A   13105.10364311  .00000414  00000-0  73297-4 0  9994
2 37673 098.0123 113.4400 0001597 104.1741 297.9706 14.72321941 99242
1 37673U 11024A   13106.48287602  .00000390  00000-0  69463-4 0  9996
2 37673 098.0120 114.7994 0001587 103.8169 044.3511 14.72322765 99445
1 37673U 11024A   13107.50471897  .00000335  00000-0  60749-4 0  9998
2 37673 098.0120 115.8070 0001581 102.4717 058.5678 14.72323500 99595
1 37673U 11024A   13109.60909749  .00000295  00000-0  54406-4 0  9991
2 37673 098.0117 117.8816 0001560 100.6469 047.6461 14.72324572 99906
1 37673U 11024A   13111.08222292  .00000409  00000-0  72424-4 0  9994
2 37673 098.0119 119.3336 0001558 101.8111 289.8842 14.72325495100121
1 37673U 11024A   13112.46667971  .00000448  00000-0  78626-4 0  9997
2 37673 098.0119 120.6987 0001557 102.1290 063.2797 14.72326616100320
1 37673U 11024A   13114.63528470  .00000359  00000-0  64542-4 0  9991
2 37673 098.0119 122.8364 0001519 099.1249 033.7793 14.72328615100644
1 37673U 11024A   13115.77535721  .00000352  00000-0  63475-4 0  9991
2 37673 098.0120 123.9600 0001515 098.9329 313.1507 14.72329257100813
1 37673U 11024A   13116.79481936  .00000376  00000-0  67205-4 0  9993
2 37673 098.0120 124.9650 0001502 098.5338 313.8370 14.72329827100965
1 37673U 11024A   13118.08216507  .00000394  00000-0  70106-4 0  9991
2 37673 098.0118 126.2340 0001484 098.6937 292.9958 14.72330948101155
1 37673U 11024A   13119.53095675  .00000467  00000-0  81674-4 0  9996
2 37673 098.0116 127.6625 0001470 099.0680 047.1603 14.72332380101361
